{
    "links": {
        "self": "http://www.neowsapp.com/rest/v1/neo/54087750?api_key=iIulBulltgU6a56xZRHN4H3l9WmuAYTsLGpBGhQ2"
    },
    "id": "54087750",
    "neo_reference_id": "54087750",
    "name": "(2020 VH3)",
    "designation": "2020 VH3",
    "nasa_jpl_url": "http://ssd.jpl.nasa.gov/sbdb.cgi?sstr=54087750",
    "absolute_magnitude_h": 23.464,
    "estimated_diameter": {
        "kilometers": {
            "estimated_diameter_min": 0.0539206323,
            "estimated_diameter_max": 0.1205701993
        },
        "meters": {
            "estimated_diameter_min": 53.920632337,
            "estimated_diameter_max": 120.5701992952
        },
        "miles": {
            "estimated_diameter_min": 0.0335047172,
            "estimated_diameter_max": 0.0749188253
        },
        "feet": {
            "estimated_diameter_min": 176.9049673964,
            "estimated_diameter_max": 395.5715326557
        }
    },
    "is_potentially_hazardous_asteroid": false,
    "close_approach_data": [
        {
            "close_approach_date": "2012-11-10",
            "close_approach_date_full": "2012-Nov-10 06:12",
            "epoch_date_close_approach": 1352527920000,
            "relative_velocity": {
                "kilometers_per_second": "20.8891724424",
                "kilometers_per_hour": "75201.0207926382",
                "miles_per_hour": "46726.9898364034"
            },
            "miss_distance": {
                "astronomical": "0.2166109176",
                "lunar": "84.2616469464",
                "kilometers": "32404531.891705512",
                "miles": "20135242.4339075856"
            },
            "orbiting_body": "Earth"
        },
        {
            "close_approach_date": "2016-11-05",
            "close_approach_date_full": "2016-Nov-05 11:39",
            "epoch_date_close_approach": 1478345940000,
            "relative_velocity": {
                "kilometers_per_second": "17.2444689476",
                "kilometers_per_hour": "62080.0882114097",
                "miles_per_hour": "38574.1525889173"
            },
            "miss_distance": {
                "astronomical": "0.1017771962",
                "lunar": "39.5913293218",
                "kilometers": "15225651.766092094",
                "miles": "9460781.3051911372"
            },
            "orbiting_body": "Earth"
        },
        {
            "close_approach_date": "2020-11-02",
            "close_approach_date_full": "2020-Nov-02 09:16",
            "epoch_date_close_approach": 1604308560000,
            "relative_velocity": {
                "kilometers_per_second": "14.2611801897",
                "kilometers_per_hour": "51340.2486828048",
                "miles_per_hour": "31900.8339662683"
            },
            "miss_distance": {
                "astronomical": "0.1302312694",
                "lunar": "50.6599637966",
                "kilometers": "19482320.509636178",
                "miles": "12105752.6134801364"
            },
            "orbiting_body": "Earth"
        },
        {
            "close_approach_date": "2024-11-03",
            "close_approach_date_full": "2024-Nov-03 04:56",
            "epoch_date_close_approach": 1730609760000,
            "relative_velocity": {
                "kilometers_per_second": "12.3270267625",
                "kilometers_per_hour": "44377.2963451397",
                "miles_per_hour": "27574.326165123"
            },
            "miss_distance": {
                "astronomical": "0.2523363892",
                "lunar": "98.1588553988",
                "kilometers": "37748986.347811004",
                "miles": "23456132.4412156952"
            },
            "orbiting_body": "Earth"
        }
    ],
    "orbital_data": {
        "orbit_id": "5",
        "orbit_determination_date": "2020-11-23 05:21:46",
        "first_observation_date": "2020-11-11",
        "last_observation_date": "2020-11-23",
        "data_arc_in_days": 12,
        "observations_used": 44,
        "orbit_uncertainty": "8",
        "minimum_orbit_intersection": ".0555334",
        "jupiter_tisserand_invariant": "5.136",
        "epoch_osculation": "2459166.5",
        "eccentricity": ".3896126081809623",
        "semi_major_axis": "1.206721792090631",
        "inclination": "21.650090351207",
        "ascending_node_longitude": "51.83653336656457",
        "orbital_period": "484.1825801556918",
        "perihelion_distance": ".7365677673253953",
        "perihelion_argument": "255.8919738481829",
        "aphelion_distance": "1.676875816855867",
        "perihelion_time": "2459085.758787143946",
        "mean_anomaly": "60.03280130159335",
        "mean_motion": ".7435211731166368",
        "equinox": "J2000",
        "orbit_class": {
            "orbit_class_type": "APO",
            "orbit_class_description": "Near-Earth asteroid orbits which cross the Earth’s orbit similar to that of 1862 Apollo",
            "orbit_class_range": "a (semi-major axis) > 1.0 AU; q (perihelion) < 1.017 AU"
        }
    },
    "is_sentry_object": false
}